ONEWEB-0291             
1 49081U 21075G   25320.23824832  .00000054  00000+0  10630-3 0  9992
2 49081  87.9141  48.1937 0001512  91.4092 268.7213 13.17652341205560
ONEWEB-0293             
1 49082U 21075H   25320.49136205 -.00000305  00000+0 -81961-3 0  9997
2 49082  87.9133  48.1669 0001853  97.5585 262.5757 13.17649414205625
ONEWEB-0294             
1 49083U 21075J   25320.24655177 -.00000197  00000+0 -58349-3 0  9998
2 49083  87.8971  32.9572 0001969  87.4870 272.6484 13.12442885206642
ONEWEB-0295             
1 49084U 21075K   25320.49053454  .00000143  00000+0  33424-3 0  9992
2 49084  87.9135  48.1714 0001472  93.6192 266.5108 13.17650752205584
ONEWEB-0296             
1 49085U 21075L   25320.22709145 -.00000335  00000+0 -96626-3 0  9997
2 49085  87.8970  32.9666 0001566  86.5436 273.5872 13.12441725206641
ONEWEB-0297             
1 49086U 21075M   25320.48662183  .00000004  00000+0 -23490-4 0  9998
2 49086  87.8961  32.9486 0001694 101.1498 258.9821 13.12442175207288
ONEWEB-0298             
1 49087U 21075N   25320.49487455 -.00000351  00000+0 -93626-3 0  9990
2 49087  87.9133  48.1673 0001788 103.8627 256.2703 13.17649571205614
ONEWEB-0299             
1 49088U 21075P   25320.26862191  .00000058  00000+0  11534-3 0  9990
2 49088  87.9144  48.1719 0001534 102.4832 257.6472 13.17652596205563
